STARLINK-37014          
1 68216U 26053K   26093.79409167  .00162975  00000+0  83573-3 0  9990
2 68216  97.2835 329.3385 0002208 122.0469 238.1014 15.80816271  4022
STARLINK-37011          
1 68217U 26053L   26093.79334116  .00226652  00000+0  11530-2 0  9998
2 68217  97.2832 329.3400 0001614  88.2067 271.9386 15.80826234  4022
STARLINK-37108          
1 68218U 26053M   26093.79259043  .00234570  00000+0  11921-2 0  9996
2 68218  97.2833 329.3408 0001638  90.5408 269.6048 15.80826397  4022
STARLINK-37106          
1 68219U 26053N   26093.79183450  .00235656  00000+0  11966-2 0  9990
2 68219  97.2834 329.3420 0001658  47.9814 312.1595 15.80843330  4024
STARLINK-37030          
1 68220U 26053P   26093.79033365  .00228565  00000+0  11621-2 0  9990
2 68220  97.2837 329.3436 0001150 102.1639 257.9758 15.80832476  4028
STARLINK-37012          
1 68221U 26053Q   26093.79108208  .00240459  00000+0  12194-2 0  9992
2 68221  97.2836 329.3426 0001691  81.4025 278.7435 15.80858557  4026
STARLINK-37110          
1 68222U 26053R   26093.78958088  .00307961  00000+0  15485-2 0  9999
2 68222  97.2839 329.3442 0001274 101.1924 258.9487 15.80870632  4028
STARLINK-37025          
1 68223U 26053S   26093.78882987  .00210510  00000+0  10725-2 0  9999
2 68223  97.2840 329.3448 0001303  69.9286 290.2122 15.80835145  4027
STARLINK-36977          
1 68224U 26053T   26093.85158412 -.00092671  00000+0 -50923-3 0  9990
2 68224  97.2841 329.4124 0002252  49.3404 310.8059 15.79887063  4010
STARLINK-36960          
1 68225U 26053U   26093.78732471  .00356187  00000+0  17796-2 0  9999
2 68225  97.2841 329.3466 0000955  98.1585 261.9791 15.80887116  4008
STARLINK-37038          
1 68226U 26053V   26093.78581970  .00475511  00000+0  23376-2 0  9990
2 68226  97.2842 329.3480 0000685  37.8508 322.2808 15.80934140  4001
STARLINK-37083          
1 68227U 26053W   26093.78657168  .00369018  00000+0  18397-2 0  9995
2 68227  97.2841 329.3479 0001128  75.5578 284.5816 15.80902197  3991
STARLINK-37050          
1 68228U 26053X   26093.78507038  .00318690  00000+0  16019-2 0  9995
2 68228  97.2844 329.3501 0001005  70.4735 289.6642 15.80851352  4006
STARLINK-37081          
1 68229U 26053Y   26093.80109317  .00165940  00000+0  10920-2 0  9990
2 68229  97.2835 329.3292 0001454 112.1830 247.9589 15.75188157  4021
STARLINK-37100          
1 68230U 26053Z   26093.78432093  .00303799  00000+0  15287-2 0  9996
2 68230  97.2844 329.3512 0001783 102.2212 257.9256 15.80865752  4028
STARLINK-37104          
1 68231U 26053AA  26093.78356409  .00246098  00000+0  12479-2 0  9991
2 68231  97.2844 329.3520 0001047 118.1210 242.0164 15.80846917  4020
STARLINK-37027          
1 68232U 26054A   26093.61905384  .00203400  00000+0  13004-2 0  9992
2 68232  53.1600 187.9550 0000911 104.3714 255.7407 15.75220280  2716
