[{"OBJECT_NAME":"STARLINK-37014","OBJECT_ID":"2026-053K","EPOCH":"2026-04-03T19:03:29.520288","MEAN_MOTION":15.80816271,"ECCENTRICITY":0.0002208,"INCLINATION":97.2835,"RA_OF_ASC_NODE":329.3385,"ARG_OF_PERICENTER":122.0469,"MEAN_ANOMALY":238.1014,"EPHEMERIS_TYPE":0,"CLASSIFICATION_TYPE":"U","NORAD_CAT_ID":68216,"ELEMENT_SET_NO":999,"REV_AT_EPOCH":402,"BSTAR":0.00083573,"MEAN_MOTION_DOT":0.00162975,"MEAN_MOTION_DDOT":0},{"OBJECT_NAME":"STARLINK-37011","OBJECT_ID":"2026-053L","EPOCH":"2026-04-03T19:02:24.676224","MEAN_MOTION":15.80826234,"ECCENTRICITY":0.0001614,"INCLINATION":97.2832,"RA_OF_ASC_NODE":329.34,"ARG_OF_PERICENTER":88.2067,"MEAN_ANOMALY":271.9386,"EPHEMERIS_TYPE":0,"CLASSIFICATION_TYPE":"U","NORAD_CAT_ID":68217,"ELEMENT_SET_NO":999,"REV_AT_EPOCH":402,"BSTAR":0.001153,"MEAN_MOTION_DOT":0.00226652,"MEAN_MOTION_DDOT":0},{"OBJECT_NAME":"STARLINK-37108","OBJECT_ID":"2026-053M","EPOCH":"2026-04-03T19:01:19.813152","MEAN_MOTION":15.80826397,"ECCENTRICITY":0.0001638,"INCLINATION":97.2833,"RA_OF_ASC_NODE":329.3408,"ARG_OF_PERICENTER":90.5408,"MEAN_ANOMALY":269.6048,"EPHEMERIS_TYPE":0,"CLASSIFICATION_TYPE":"U","NORAD_CAT_ID":68218,"ELEMENT_SET_NO":999,"REV_AT_EPOCH":402,"BSTAR":0.0011921,"MEAN_MOTION_DOT":0.0023457,"MEAN_MOTION_DDOT":0},{"OBJECT_NAME":"STARLINK-37106","OBJECT_ID":"2026-053N","EPOCH":"2026-04-03T19:00:14.500800","MEAN_MOTION":15.8084333,"ECCENTRICITY":0.0001658,"INCLINATION":97.2834,"RA_OF_ASC_NODE":329.342,"ARG_OF_PERICENTER":47.9814,"MEAN_ANOMALY":312.1595,"EPHEMERIS_TYPE":0,"CLASSIFICATION_TYPE":"U","NORAD_CAT_ID":68219,"ELEMENT_SET_NO":999,"REV_AT_EPOCH":402,"BSTAR":0.0011966,"MEAN_MOTION_DOT":0.00235656,"MEAN_MOTION_DDOT":0},{"OBJECT_NAME":"STARLINK-37030","OBJECT_ID":"2026-053P","EPOCH":"2026-04-03T18:58:04.827360","MEAN_MOTION":15.80832476,"ECCENTRICITY":0.000115,"INCLINATION":97.2837,"RA_OF_ASC_NODE":329.3436,"ARG_OF_PERICENTER":102.1639,"MEAN_ANOMALY":257.9758,"EPHEMERIS_TYPE":0,"CLASSIFICATION_TYPE":"U","NORAD_CAT_ID":68220,"ELEMENT_SET_NO":999,"REV_AT_EPOCH":402,"BSTAR":0.0011621,"MEAN_MOTION_DOT":0.00228565,"MEAN_MOTION_DDOT":0},{"OBJECT_NAME":"STARLINK-37012","OBJECT_ID":"2026-053Q","EPOCH":"2026-04-03T18:59:09.491712","MEAN_MOTION":15.80858557,"ECCENTRICITY":0.0001691,"INCLINATION":97.2836,"RA_OF_ASC_NODE":329.3426,"ARG_OF_PERICENTER":81.4025,"MEAN_ANOMALY":278.7435,"EPHEMERIS_TYPE":0,"CLASSIFICATION_TYPE":"U","NORAD_CAT_ID":68221,"ELEMENT_SET_NO":999,"REV_AT_EPOCH":402,"BSTAR":0.0012194,"MEAN_MOTION_DOT":0.00240459,"MEAN_MOTION_DDOT":0},{"OBJECT_NAME":"STARLINK-37110","OBJECT_ID":"2026-053R","EPOCH":"2026-04-03T18:56:59.788032","MEAN_MOTION":15.80870632,"ECCENTRICITY":0.0001274,"INCLINATION":97.2839,"RA_OF_ASC_NODE":329.3442,"ARG_OF_PERICENTER":101.1924,"MEAN_ANOMALY":258.9487,"EPHEMERIS_TYPE":0,"CLASSIFICATION_TYPE":"U","NORAD_CAT_ID":68222,"ELEMENT_SET_NO":999,"REV_AT_EPOCH":402,"BSTAR":0.0015485,"MEAN_MOTION_DOT":0.00307961,"MEAN_MOTION_DDOT":0},{"OBJECT_NAME":"STARLINK-37025","OBJECT_ID":"2026-053S","EPOCH":"2026-04-03T18:55:54.900768","MEAN_MOTION":15.80835145,"ECCENTRICITY":0.0001303,"INCLINATION":97.284,"RA_OF_ASC_NODE":329.3448,"ARG_OF_PERICENTER":69.9286,"MEAN_ANOMALY":290.2122,"EPHEMERIS_TYPE":0,"CLASSIFICATION_TYPE":"U","NORAD_CAT_ID":68223,"ELEMENT_SET_NO":999,"REV_AT_EPOCH":402,"BSTAR":0.0010725,"MEAN_MOTION_DOT":0.0021051,"MEAN_MOTION_DDOT":0},{"OBJECT_NAME":"STARLINK-36977","OBJECT_ID":"2026-053T","EPOCH":"2026-04-03T20:26:16.867968","MEAN_MOTION":15.79887063,"ECCENTRICITY":0.0002252,"INCLINATION":97.2841,"RA_OF_ASC_NODE":329.4124,"ARG_OF_PERICENTER":49.3404,"MEAN_ANOMALY":310.8059,"EPHEMERIS_TYPE":0,"CLASSIFICATION_TYPE":"U","NORAD_CAT_ID":68224,"ELEMENT_SET_NO":999,"REV_AT_EPOCH":401,"BSTAR":-0.00050923,"MEAN_MOTION_DOT":-0.00092671,"MEAN_MOTION_DDOT":0},{"OBJECT_NAME":"STARLINK-36960","OBJECT_ID":"2026-053U","EPOCH":"2026-04-03T18:53:44.854944","MEAN_MOTION":15.80887116,"ECCENTRICITY":9.55e-5,"INCLINATION":97.2841,"RA_OF_ASC_NODE":329.3466,"ARG_OF_PERICENTER":98.1585,"MEAN_ANOMALY":261.9791,"EPHEMERIS_TYPE":0,"CLASSIFICATION_TYPE":"U","NORAD_CAT_ID":68225,"ELEMENT_SET_NO":999,"REV_AT_EPOCH":400,"BSTAR":0.0017796,"MEAN_MOTION_DOT":0.00356187,"MEAN_MOTION_DDOT":0},{"OBJECT_NAME":"STARLINK-37038","OBJECT_ID":"2026-053V","EPOCH":"2026-04-03T18:51:34.822080","MEAN_MOTION":15.8093414,"ECCENTRICITY":6.85e-5,"INCLINATION":97.2842,"RA_OF_ASC_NODE":329.348,"ARG_OF_PERICENTER":37.8508,"MEAN_ANOMALY":322.2808,"EPHEMERIS_TYPE":0,"CLASSIFICATION_TYPE":"U","NORAD_CAT_ID":68226,"ELEMENT_SET_NO":999,"REV_AT_EPOCH":400,"BSTAR":0.0023376,"MEAN_MOTION_DOT":0.00475511,"MEAN_MOTION_DDOT":0},{"OBJECT_NAME":"STARLINK-37083","OBJECT_ID":"2026-053W","EPOCH":"2026-04-03T18:52:39.793152","MEAN_MOTION":15.80902197,"ECCENTRICITY":0.0001128,"INCLINATION":97.2841,"RA_OF_ASC_NODE":329.3479,"ARG_OF_PERICENTER":75.5578,"MEAN_ANOMALY":284.5816,"EPHEMERIS_TYPE":0,"CLASSIFICATION_TYPE":"U","NORAD_CAT_ID":68227,"ELEMENT_SET_NO":999,"REV_AT_EPOCH":399,"BSTAR":0.0018397,"MEAN_MOTION_DOT":0.00369018,"MEAN_MOTION_DDOT":0},{"OBJECT_NAME":"STARLINK-37050","OBJECT_ID":"2026-053X","EPOCH":"2026-04-03T18:50:30.080832","MEAN_MOTION":15.80851352,"ECCENTRICITY":0.0001005,"INCLINATION":97.2844,"RA_OF_ASC_NODE":329.3501,"ARG_OF_PERICENTER":70.4735,"MEAN_ANOMALY":289.6642,"EPHEMERIS_TYPE":0,"CLASSIFICATION_TYPE":"U","NORAD_CAT_ID":68228,"ELEMENT_SET_NO":999,"REV_AT_EPOCH":400,"BSTAR":0.0016019,"MEAN_MOTION_DOT":0.0031869,"MEAN_MOTION_DDOT":0},{"OBJECT_NAME":"STARLINK-37081","OBJECT_ID":"2026-053Y","EPOCH":"2026-04-03T19:13:34.449888","MEAN_MOTION":15.75188157,"ECCENTRICITY":0.0001454,"INCLINATION":97.2835,"RA_OF_ASC_NODE":329.3292,"ARG_OF_PERICENTER":112.183,"MEAN_ANOMALY":247.9589,"EPHEMERIS_TYPE":0,"CLASSIFICATION_TYPE":"U","NORAD_CAT_ID":68229,"ELEMENT_SET_NO":999,"REV_AT_EPOCH":402,"BSTAR":0.001092,"MEAN_MOTION_DOT":0.0016594,"MEAN_MOTION_DDOT":0},{"OBJECT_NAME":"STARLINK-37100","OBJECT_ID":"2026-053Z","EPOCH":"2026-04-03T18:49:25.328352","MEAN_MOTION":15.80865752,"ECCENTRICITY":0.0001783,"INCLINATION":97.2844,"RA_OF_ASC_NODE":329.3512,"ARG_OF_PERICENTER":102.2212,"MEAN_ANOMALY":257.9256,"EPHEMERIS_TYPE":0,"CLASSIFICATION_TYPE":"U","NORAD_CAT_ID":68230,"ELEMENT_SET_NO":999,"REV_AT_EPOCH":402,"BSTAR":0.0015287,"MEAN_MOTION_DOT":0.00303799,"MEAN_MOTION_DDOT":0},{"OBJECT_NAME":"STARLINK-37104","OBJECT_ID":"2026-053AA","EPOCH":"2026-04-03T18:48:19.937376","MEAN_MOTION":15.80846917,"ECCENTRICITY":0.0001047,"INCLINATION":97.2844,"RA_OF_ASC_NODE":329.352,"ARG_OF_PERICENTER":118.121,"MEAN_ANOMALY":242.0164,"EPHEMERIS_TYPE":0,"CLASSIFICATION_TYPE":"U","NORAD_CAT_ID":68231,"ELEMENT_SET_NO":999,"REV_AT_EPOCH":402,"BSTAR":0.0012479,"MEAN_MOTION_DOT":0.00246098,"MEAN_MOTION_DDOT":0},{"OBJECT_NAME":"STARLINK-37027","OBJECT_ID":"2026-054A","EPOCH":"2026-04-03T14:51:26.251776","MEAN_MOTION":15.7522028,"ECCENTRICITY":9.11e-5,"INCLINATION":53.16,"RA_OF_ASC_NODE":187.955,"ARG_OF_PERICENTER":104.3714,"MEAN_ANOMALY":255.7407,"EPHEMERIS_TYPE":0,"CLASSIFICATION_TYPE":"U","NORAD_CAT_ID":68232,"ELEMENT_SET_NO":999,"REV_AT_EPOCH":271,"BSTAR":0.0013004,"MEAN_MOTION_DOT":0.002034,"MEAN_MOTION_DDOT":0}]
